*******************************************************************************
Ephemeris / WWW_USER Mon Mar 24 06:42:33 2025 Pasadena, USA      / Horizons    
*******************************************************************************
Target body name: (2018 WV1)                      {source: JPL#17}
Center body name: Earth (399)                     {source: DE441}
Center-site name: Gemini South Obs., Cerro Pachon
*******************************************************************************
Start time      : A.D. 2018-Sep-20 22:46:00.0000 UT      
Stop  time      : A.D. 2018-Sep-21 10:25:00.0000 UT      
Step-size       : 1 minutes
*******************************************************************************
Target pole/equ : undefined
Target radii    : undefined                                                    
Center geodetic : 289.2634, -30.2406227, 2.71233  {E-lon(deg),Lat(deg),Alt(km)}
Center cylindric: 289.2634,5517.21435,-3194.81213 {E-lon(deg),Dxy(km),Dz(km)}
Center pole/equ : ITRF93                          {East-longitude positive}
Center radii    : 6378.137, 6378.137, 6356.752 km {Equator_a, b, pole_c}       
Target primary  : Sun
Vis. interferer : MOON (R_eq= 1737.400) km        {source: DE441}
Rel. light bend : Sun                             {source: DE441}
Rel. lght bnd GM: 1.3271E+11 km^3/s^2                                          
Small-body perts: Yes                             {source: SB441-N16}
Atmos refraction: NO (AIRLESS)
RA format       : HMS
Time format     : CAL 
Calendar mode   : Mixed Julian/Gregorian
RTS-only print  : NO       
EOP file        : eop.250321.p250617                                           
EOP coverage    : DATA-BASED 1962-JAN-20 TO 2025-MAR-21. PREDICTS-> 2025-JUN-16
Units conversion: 1 au= 149597870.700 km, c= 299792.458 km/s, 1 day= 86400.0 s 
Table cut-offs 1: Elevation (-90.0deg=NO ),Airmass (>38.000=NO), Daylight (YES)
Table cut-offs 2: Solar elongation (  0.0,180.0=NO ),Local Hour Angle( 0.0=NO )
Table cut-offs 3: RA/DEC angular rate (     0.0=NO )                           
*******************************************************************************
Initial IAU76/J2000 heliocentric ecliptic osculating elements (au, days, deg.):
  EPOCH=  2458458.5 ! 2018-Dec-06.00 (TDB)         Residual RMS= .12928        
   EC= .06869100257422787  QR= .9715505345748198   TP= 2458416.866413563       
   OM= 248.5061090469913   W=  141.3742304527303   IN= 1.905403987972275       
  Equivalent ICRF heliocentric cartesian coordinates (au, au/d):
   X= 2.787163119783287E-01  Y= 8.719775267121872E-01  Z= 3.748421051204766E-01
  VX=-1.676682657337402E-02 VY= 5.516972965834891E-03 VZ= 1.749720915605096E-03
Asteroid physical parameters (km, seconds, rotational period in hours):        
   GM= n.a.                RAD= n.a.               ROTPER= n.a.                
   H= 30.3                 G= .150                 B-V= n.a.                   
                           ALBEDO= n.a.            STYP= n.a.                  
*******************************************************************************
 Date__(UT)__HR:MN     R.A._________(ICRF)_________DEC
******************************************************
$$SOE
 2018-Sep-20 22:46 Cm  01 48 00.146128 +17 10 26.91361
 2018-Sep-20 22:47 Cm  01 48 00.188835 +17 10 27.42774
 2018-Sep-20 22:48 Cm  01 48 00.231457 +17 10 27.94204
 2018-Sep-20 22:49 Cm  01 48 00.273993 +17 10 28.45653
 2018-Sep-20 22:50 Cm  01 48 00.316442 +17 10 28.97119
 2018-Sep-20 22:51 Cm  01 48 00.358805 +17 10 29.48602
 2018-Sep-20 22:52 Cm  01 48 00.401081 +17 10 30.00104
 2018-Sep-20 22:53 Cm  01 48 00.443270 +17 10 30.51622
 2018-Sep-20 22:54 Cm  01 48 00.485372 +17 10 31.03157
 2018-Sep-20 22:55 Cm  01 48 00.527387 +17 10 31.54709
 2018-Sep-20 22:56 Cm  01 48 00.569315 +17 10 32.06278
 2018-Sep-20 22:57 Cm  01 48 00.611155 +17 10 32.57864
 2018-Sep-20 22:58 Cm  01 48 00.652907 +17 10 33.09466
 2018-Sep-20 22:59 Cm  01 48 00.694572 +17 10 33.61084
 2018-Sep-20 23:00 Cm  01 48 00.736148 +17 10 34.12719
 2018-Sep-20 23:01 Cm  01 48 00.777636 +17 10 34.64369
 2018-Sep-20 23:02 Cm  01 48 00.819035 +17 10 35.16035
 2018-Sep-20 23:03 Nm  01 48 00.860346 +17 10 35.67717
 2018-Sep-20 23:04 Nm  01 48 00.901568 +17 10 36.19414
 2018-Sep-20 23:05 Nm  01 48 00.942702 +17 10 36.71126
 2018-Sep-20 23:06 Nm  01 48 00.983746 +17 10 37.22854
 2018-Sep-20 23:07 Nm  01 48 01.024701 +17 10 37.74596
 2018-Sep-20 23:08 Nm  01 48 01.065566 +17 10 38.26353
 2018-Sep-20 23:09 Nm  01 48 01.106342 +17 10 38.78125
 2018-Sep-20 23:10 Nm  01 48 01.147028 +17 10 39.29912
 2018-Sep-20 23:11 Nm  01 48 01.187624 +17 10 39.81712
 2018-Sep-20 23:12 Nm  01 48 01.228131 +17 10 40.33527
 2018-Sep-20 23:13 Nm  01 48 01.268547 +17 10 40.85356
 2018-Sep-20 23:14 Nm  01 48 01.308873 +17 10 41.37199
 2018-Sep-20 23:15 Nm  01 48 01.349108 +17 10 41.89055
 2018-Sep-20 23:16 Nm  01 48 01.389253 +17 10 42.40924
 2018-Sep-20 23:17 Nm  01 48 01.429307 +17 10 42.92807
 2018-Sep-20 23:18 Nm  01 48 01.469270 +17 10 43.44704
 2018-Sep-20 23:19 Nm  01 48 01.509142 +17 10 43.96613
 2018-Sep-20 23:20 Nm  01 48 01.548923 +17 10 44.48535
 2018-Sep-20 23:21 Nm  01 48 01.588612 +17 10 45.00469
 2018-Sep-20 23:22 Nm  01 48 01.628210 +17 10 45.52416
 2018-Sep-20 23:23 Nm  01 48 01.667717 +17 10 46.04376
 2018-Sep-20 23:24 Nm  01 48 01.707132 +17 10 46.56347
 2018-Sep-20 23:25 Nm  01 48 01.746455 +17 10 47.08331
 2018-Sep-20 23:26 Nm  01 48 01.785686 +17 10 47.60326
 2018-Sep-20 23:27 Nm  01 48 01.824825 +17 10 48.12333
 2018-Sep-20 23:28 Nm  01 48 01.863872 +17 10 48.64351
 2018-Sep-20 23:29 Nm  01 48 01.902826 +17 10 49.16381
 2018-Sep-20 23:30 Am  01 48 01.941688 +17 10 49.68421
 2018-Sep-20 23:31 Am  01 48 01.980457 +17 10 50.20473
 2018-Sep-20 23:32 Am  01 48 02.019134 +17 10 50.72535
 2018-Sep-20 23:33 Am  01 48 02.057718 +17 10 51.24608
 2018-Sep-20 23:34 Am  01 48 02.096209 +17 10 51.76692
 2018-Sep-20 23:35 Am  01 48 02.134607 +17 10 52.28786
 2018-Sep-20 23:36 Am  01 48 02.172912 +17 10 52.80889
 2018-Sep-20 23:37 Am  01 48 02.211123 +17 10 53.33003
 2018-Sep-20 23:38 Am  01 48 02.249242 +17 10 53.85127
 2018-Sep-20 23:39 Am  01 48 02.287266 +17 10 54.37260
 2018-Sep-20 23:40 Am  01 48 02.325198 +17 10 54.89402
 2018-Sep-20 23:41 Am  01 48 02.363035 +17 10 55.41554
 2018-Sep-20 23:42 Am  01 48 02.400779 +17 10 55.93715
 2018-Sep-20 23:43 Am  01 48 02.438429 +17 10 56.45885
 2018-Sep-20 23:44 Am  01 48 02.475985 +17 10 56.98063
 2018-Sep-20 23:45 Am  01 48 02.513447 +17 10 57.50250
 2018-Sep-20 23:46 Am  01 48 02.550815 +17 10 58.02445
 2018-Sep-20 23:47 Am  01 48 02.588088 +17 10 58.54649
 2018-Sep-20 23:48 Am  01 48 02.625268 +17 10 59.06861
 2018-Sep-20 23:49 Am  01 48 02.662352 +17 10 59.59080
 2018-Sep-20 23:50 Am  01 48 02.699343 +17 11 00.11307
 2018-Sep-20 23:51 Am  01 48 02.736239 +17 11 00.63542
 2018-Sep-20 23:52 Am  01 48 02.773040 +17 11 01.15784
 2018-Sep-20 23:53 Am  01 48 02.809746 +17 11 01.68033
 2018-Sep-20 23:54 Am  01 48 02.846358 +17 11 02.20289
 2018-Sep-20 23:55 Am  01 48 02.882875 +17 11 02.72552
 2018-Sep-20 23:56 Am  01 48 02.919296 +17 11 03.24821
 2018-Sep-20 23:57 Am  01 48 02.955623 +17 11 03.77097
 2018-Sep-20 23:58 Am  01 48 02.991855 +17 11 04.29379
 2018-Sep-20 23:59  m  01 48 03.027991 +17 11 04.81668
 2018-Sep-21 00:00  m  01 48 03.064033 +17 11 05.33962
 2018-Sep-21 00:01  m  01 48 03.099978 +17 11 05.86262
 2018-Sep-21 00:02  m  01 48 03.135829 +17 11 06.38568
 2018-Sep-21 00:03  m  01 48 03.171584 +17 11 06.90879
 2018-Sep-21 00:04  m  01 48 03.207244 +17 11 07.43195
 2018-Sep-21 00:05  m  01 48 03.242808 +17 11 07.95517
 2018-Sep-21 00:06  m  01 48 03.278276 +17 11 08.47843
 2018-Sep-21 00:07  m  01 48 03.313649 +17 11 09.00174
 2018-Sep-21 00:08  m  01 48 03.348926 +17 11 09.52509
 2018-Sep-21 00:09  m  01 48 03.384108 +17 11 10.04849
 2018-Sep-21 00:10  m  01 48 03.419193 +17 11 10.57193
 2018-Sep-21 00:11  m  01 48 03.454183 +17 11 11.09541
 2018-Sep-21 00:12  m  01 48 03.489077 +17 11 11.61893
 2018-Sep-21 00:13  m  01 48 03.523875 +17 11 12.14248
 2018-Sep-21 00:14  m  01 48 03.558577 +17 11 12.66607
 2018-Sep-21 00:15  m  01 48 03.593182 +17 11 13.18969
 2018-Sep-21 00:16  m  01 48 03.627692 +17 11 13.71335
 2018-Sep-21 00:17  m  01 48 03.662106 +17 11 14.23703
 2018-Sep-21 00:18  m  01 48 03.696423 +17 11 14.76074
 2018-Sep-21 00:19  m  01 48 03.730645 +17 11 15.28448
 2018-Sep-21 00:20  m  01 48 03.764770 +17 11 15.80824
 2018-Sep-21 00:21  m  01 48 03.798799 +17 11 16.33202
 2018-Sep-21 00:22  m  01 48 03.832732 +17 11 16.85582
 2018-Sep-21 00:23  m  01 48 03.866568 +17 11 17.37964
 2018-Sep-21 00:24  m  01 48 03.900308 +17 11 17.90348
 2018-Sep-21 00:25  m  01 48 03.933952 +17 11 18.42734
 2018-Sep-21 00:26  m  01 48 03.967499 +17 11 18.95120
 2018-Sep-21 00:27  m  01 48 04.000950 +17 11 19.47508
 2018-Sep-21 00:28  m  01 48 04.034305 +17 11 19.99897
 2018-Sep-21 00:29  m  01 48 04.067563 +17 11 20.52287
 2018-Sep-21 00:30  m  01 48 04.100725 +17 11 21.04677
 2018-Sep-21 00:31  m  01 48 04.133791 +17 11 21.57068
 2018-Sep-21 00:32  m  01 48 04.166760 +17 11 22.09459
 2018-Sep-21 00:33  m  01 48 04.199632 +17 11 22.61850
 2018-Sep-21 00:34  m  01 48 04.232409 +17 11 23.14241
 2018-Sep-21 00:35  m  01 48 04.265088 +17 11 23.66632
 2018-Sep-21 00:36  m  01 48 04.297672 +17 11 24.19023
 2018-Sep-21 00:37  m  01 48 04.330158 +17 11 24.71412
 2018-Sep-21 00:38  m  01 48 04.362549 +17 11 25.23801
 2018-Sep-21 00:39  m  01 48 04.394843 +17 11 25.76189
 2018-Sep-21 00:40  m  01 48 04.427040 +17 11 26.28576
 2018-Sep-21 00:41  m  01 48 04.459141 +17 11 26.80962
 2018-Sep-21 00:42  m  01 48 04.491146 +17 11 27.33346
 2018-Sep-21 00:43  m  01 48 04.523054 +17 11 27.85728
 2018-Sep-21 00:44  m  01 48 04.554866 +17 11 28.38109
 2018-Sep-21 00:45  m  01 48 04.586582 +17 11 28.90487
 2018-Sep-21 00:46  m  01 48 04.618201 +17 11 29.42864
 2018-Sep-21 00:47  m  01 48 04.649723 +17 11 29.95237
 2018-Sep-21 00:48  m  01 48 04.681150 +17 11 30.47609
